{"fetched_at":"2026-07-12T05:52:51.155Z","source":"https://celestrak.org/NORAD/elements/gp.php?NAME=EROS&FORMAT=JSON","constellation":"eros","records":[{"OBJECT_NAME":"EROS C3","OBJECT_ID":"2022-179A","EPOCH":"2026-07-11T19:25:55.697088","CLASSIFICATION_TYPE":"U","MEAN_MOTION":15.11015685,"ECCENTRICITY":0.0006724,"INCLINATION":139.3344,"RA_OF_ASC_NODE":145.5559,"ARG_OF_PERICENTER":155.6629,"MEAN_ANOMALY":204.4497,"EPHEMERIS_TYPE":0,"NORAD_CAT_ID":54880,"ELEMENT_SET_NO":999,"REV_AT_EPOCH":19605,"BSTAR":0.00017676,"MEAN_MOTION_DOT":0.00003251,"MEAN_MOTION_DDOT":0}]}
